A10a1Gd 22.8  0.15  K18BI 334.00824   62.65832   67.97172    6.09018  0.5114257  0.45818767   1.6663790                  4   1    0 days 0.24         NEOCPV****
A10a1Gd 22.8  0.15  K18BI 332.31448   62.09500   68.37663    5.87291  0.4893976  0.48198622   1.6110647                  4   1    0 days 0.24         NEOCPV****
A10a1Gd 22.8  0.15  K18BI 330.60952   61.48158   68.81469    5.65503  0.4674784  0.50532448   1.5610704                  4   1    0 days 0.24         NEOCPV****
A10a1Gd 22.8  0.15  K18BI 328.89745   60.81119   69.29020    5.43659  0.4456682  0.52815454   1.5157539                  4   1    0 days 0.24         NEOCPV****
A10a1Gd 22.8  0.15  K18BI 327.18254   60.07648   69.80788    5.21764  0.4239670  0.55043505   1.4745698                  4   1    0 days 0.24         NEOCPV****
A10a1Gd 22.8  0.15  K18BI 325.46973   59.26811   70.37355    4.99826  0.4023750  0.57212472   1.4370622                  4   1    0 days 0.24         NEOCPV****
A10a1Gd 22.8  0.15  K18BI 323.76466   58.37490   70.99414    4.77851  0.3808927  0.59318455   1.4028444                  4   1    0 days 0.24         NEOCPV****
A10a1Gd 22.8  0.15  K18BI 322.07387   57.38333   71.67794    4.55850  0.3595210  0.61357738   1.3715864                  4   1    0 days 0.24         NEOCPV****
A10a1Gd 22.8  0.15  K18BI 320.40504   56.27717   72.43482    4.33834  0.3382610  0.63326944   1.3430031                  4   1    0 days 0.24         NEOCPV****
A10a1Gd 22.8  0.15  K18BI 318.76718   55.03723   73.27632    4.11817  0.3171144  0.65223250   1.3168443                  4   1    0 days 0.24         NEOCPV****
A10a1Gd 22.8  0.15  K18BI 317.17271   53.63533   74.21900    3.89816  0.2960838  0.67041991   1.2929194                  4   1    0 days 0.24         NEOCPV****
A10a1Gd 22.8  0.15  K18BI 315.63447   52.04504   75.27824    3.67855  0.2751726  0.68782648   1.2710134                  4   1    0 days 0.24         NEOCPV****
A10a1Gd 22.8  0.15  K18BI 314.17256   50.22078   76.48002    3.45960  0.2543856  0.70439810   1.2509999                  4   1    0 days 0.24         NEOCPV****
A10a1Gd 22.8  0.15  K18BI 312.80997   48.11510   77.85038    3.24168  0.2337296  0.72012790   1.2327158                  4   1    0 days 0.23         NEOCPV****
A10a1Gd 22.8  0.15  K18BI 311.58006   45.65799   79.42684    3.02525  0.2132143  0.73498020   1.2160524                  4   1    0 days 0.23         NEOCPV****
A10a1Gd 22.8  0.15  K18BI 310.52894   42.75626   81.25739    2.81099  0.1928538  0.74891999   1.2009155                  4   1    0 days 0.24         NEOCPV****
A10a1Gd 22.7  0.15  K18BI 309.72118   39.28805   83.40055    2.59969  0.1726691  0.76193217   1.1872035                  4   1    0 days 0.24         NEOCPV****
A10a1Gd 22.7  0.15  K18BI 309.25387   35.07937   85.93428    2.39246  0.1526923  0.77399128   1.1748399                  4   1    0 days 0.23         NEOCPV****
A10a1Gd 22.7  0.15  K18BI 309.28493   29.85393   88.97665    2.19165  0.1329748  0.78496151   1.1638682                  4   1    0 days 0.24         NEOCPV****
A10a1Gd 22.7  0.15  K18BI 310.05545   23.25698   92.64361    1.99903  0.1136030  0.79489208   1.1541545                  4   1    0 days 0.24         NEOCPV****
A10a1Gd 22.7  0.15  K18BI 311.99865   14.68316   97.10744    1.81882  0.0947319  0.80363412   1.1457692                  4   1    0 days 0.24         NEOCPV****
A10a1Gd 22.7  0.15  K18BI 315.91631    3.12665  102.57150    1.65902  0.0766626  0.81082054   1.1389891                  4   1    0 days 0.24         NEOCPV****
A10a1Gd 22.6  0.15  K18BI 323.32863  346.97530  109.13006    1.52985  0.0600355  0.81611716   1.1340557                  4   1    0 days 0.33         NEOCPV****
A10a1Gd 22.5  0.15  K18BI 337.02997  323.64939  116.57039    1.45670  0.0463169  0.81803884   1.1322790                  4   1    0 days 0.35         NEOCPV****
A10a1Gd 22.4  0.15  K18BI 359.61245  291.21211  124.26244    1.42889  0.0386024  0.81763177   1.1326547                  4   1    0 days 0.38         NEOCPV****
A10a1Gd 22.5  0.15  K18BI  25.95960  252.46891  134.51950    1.30945  0.0403626  0.82556220   1.1253895                  4   1    0 days 0.58         NEOCPV****
A10a1Gd 22.6  0.15  K18BI  45.37673  217.89174  147.50880    1.21709  0.0505238  0.83464743   1.1172079                  4   1    0 days 0.31         NEOCPV****
A10a1Gd 22.7  0.15  K18BI  56.42581  191.47833  160.68819    1.21429  0.0652022  0.84058077   1.1119444                  4   1    0 days 0.40         NEOCPV****
A10a1Gd 22.7  0.15  K18BI  62.29855  171.95716  172.15286    1.28592  0.0819512  0.84344568   1.1094251                  4   1    0 days 0.30         NEOCPV****
A10a1Gd 22.7  0.15  K18BI  65.34793  157.08335  181.79560    1.40511  0.0996881  0.84476812   1.1082669                  4   1    0 days 0.29         NEOCPV****
A10a1Gd 22.7  0.15  K18BI  66.77460  145.65804  189.61581    1.55851  0.1179311  0.84477218   1.1082634                  4   1    0 days 0.36         NEOCPV****
A10a1Gd 22.7  0.15  K18BI  67.21809  136.73191  195.92368    1.73647  0.1364462  0.84369017   1.1092107                  4   1    0 days 0.23         NEOCPV****
A10a1Gd 22.7  0.15  K18BI  67.01855  129.71261  200.97258    1.93199  0.1551091  0.84146203   1.1111679                  4   1    0 days 0.24         NEOCPV****
A10a1Gd 22.8  0.15  K18BI  66.38351  124.10506  205.05080    2.14023  0.1738490  0.83813990   1.1141022                  4   1    0 days 0.23         NEOCPV****
A10a1Gd 22.8  0.15  K18BI  65.44111  119.55825  208.38208    2.35789  0.1926228  0.83374267   1.1180160                  4   1    0 days 0.23         NEOCPV****
A10a1Gd 22.8  0.15  K18BI  64.27805  115.80766  211.14493    2.58293  0.2114034  0.82832315   1.1228873                  4   1    0 days 0.23         NEOCPV****
A10a1Gd 22.8  0.15  K18BI  62.95115  112.67358  213.46306    2.81373  0.2301728  0.82189368   1.1287358                  4   1    0 days 0.24         NEOCPV****
A10a1Gd 22.8  0.15  K18BI  61.49792  110.03197  215.42408    3.04894  0.2489190  0.81443310   1.1356184                  4   1    0 days 0.23         NEOCPV****
A10a1Gd 22.8  0.15  K18BI  59.95107  107.77051  217.10819    3.28811  0.2676337  0.80600169   1.1435243                  4   1    0 days 0.23         NEOCPV****
A10a1Gd 22.8  0.15  K18BI  58.32974  105.82315  218.56340    3.53038  0.2863111  0.79657923   1.1525242                  4   1    0 days 0.23         NEOCPV****
A10a1Gd 22.8  0.15  K18BI  56.65244  104.12657  219.83521    3.77553  0.3049472  0.78620616   1.1626395                  4   1    0 days 0.23         NEOCPV****
A10a1Gd 22.8  0.15  K18BI  54.93024  102.64219  220.95224    4.02293  0.3235391  0.77487232   1.1739492                  4   1    0 days 0.23         NEOCPV****
A10a1Gd 22.8  0.15  K18BI  53.17450  101.33185  221.94208    4.27249  0.3420850  0.76260871   1.1865013                  4   1    0 days 0.23         NEOCPV****
A10a1Gd 22.8  0.15  K18BI  51.39361  100.16791  222.82489    4.52398  0.3605836  0.74943377   1.2003665                  4   1    0 days 0.23         NEOCPV****
A10a1Gd 22.8  0.15  K18BI  49.59360   99.13026  223.61580    4.77713  0.3790343  0.73535397   1.2156403                  4   1    0 days 0.23         NEOCPV****
A10a1Gd 22.8  0.15  K18BI  47.78089   98.19921  224.32894    5.03189  0.3974366  0.72039878   1.2324068                  4   1    0 days 0.23         NEOCPV****
A10a1Gd 22.8  0.15  K18BI  45.96033   97.36012  224.97507    5.28814  0.4157905  0.70458888   1.2507740                  4   1    0 days 0.23         NEOCPV****
A10a1Gd 22.8  0.15  K18BI  44.13609   96.60097  225.56302    5.54578  0.4340963  0.68794607   1.2708661                  4   1    0 days 0.23         NEOCPV****
A10a1Gd 22.8  0.15  K18BI  42.31169   95.91214  226.09998    5.80468  0.4523542  0.67049168   1.2928271                  4   1    0 days 0.23         NEOCPV****
A10a1Gd 22.8  0.15  K18BI  40.49046   95.28494  226.59233    6.06481  0.4705648  0.65225193   1.3168181                  4   1    0 days 0.23         NEOCPV****
A10a1Gd 22.8  0.15  K18BI  38.67551   94.71200  227.04536    6.32608  0.4887288  0.63325652   1.3430214                  4   1    0 days 0.23         NEOCPV****
A10a1Gd 22.8  0.15  K18BI  36.86951   94.18723  227.46356    6.58847  0.5068469  0.61353446   1.3716503                  4   1    0 days 0.23         NEOCPV****
A10a1Gd 22.8  0.15  K18BI  35.07498   93.70545  227.85076    6.85191  0.5249198  0.59311688   1.4029511                  4   1    0 days 0.23         NEOCPV****
A10a1Gd 22.8  0.15  K18BI  33.29434   93.26201  228.21031    7.11640  0.5429487  0.57203838   1.4372068                  4   1    0 days 0.23         NEOCPV****
A10a1Gd 22.8  0.15  K18BI  31.52968   92.85334  228.54491    7.38184  0.5609342  0.55033236   1.4747532                  4   1    0 days 0.23         NEOCPV****
A10a1Gd 22.8  0.15  K18BI  29.78334   92.47565  228.85720    7.64826  0.5788776  0.52803992   1.5159733                  4   1    0 days 0.23         NEOCPV****
A10a1Gd 22.8  0.15  K18BI  28.05724   92.12634  229.14923    7.91559  0.5967799  0.50519896   1.5613290                  4   1    0 days 0.23         NEOCPV****
A10a1Gd 22.8  0.15  K18BI  26.35347   91.80272  229.42289    8.18380  0.6146421  0.48185342   1.6113606                  4   1    0 days 0.23         NEOCPV****
A10a1Gd 22.8  0.15  K18BI  24.67405   91.50249  229.67990    8.45289  0.6324654  0.45804954   1.6667140                  4   1    0 days 0.23         NEOCPV****
A10a1Gd 22.8  0.15  K18BI  23.02107   91.22347  229.92171    8.72283  0.6502510  0.43383787   1.7281618                  4   1    0 days 0.23         NEOCPV****
A10a1Gd 22.8  0.15  K18BI  21.39649   90.96403  230.14962    8.99359  0.6680000  0.40926974   1.7966478                  4   1    0 days 0.23         NEOCPV****
A10a1Gd 22.8  0.15  K18BI  19.80235   90.72267  230.36478    9.26515  0.6857137  0.38440092   1.8733249                  4   1    0 days 0.23         NEOCPV****
